start=new Date('2023-03-16T00:00:00.000Z').valueOf();
sats=[{"SEMIMAJOR_AXIS":"6917.786","ARG_OF_PERICENTER":"71.0764","MEAN_MOTION_DOT":"0.00038060","ELEMENT_SET_NO":"999","CLASSIFICATION_TYPE":"U","REV_AT_EPOCH":"3001","TIME_SYSTEM":"UTC","ECCENTRICITY":"0.00011310","PERIOD":"95.436","RA_OF_ASC_NODE":"118.1940","DECAY_DATE":null,"GP_ID":"228151819","INCLINATION":"53.2161","FILE":"3861350","NORAD_CAT_ID":"53745","EPOCH":"2023-03-15T12:34:41.916864","MEAN_MOTION":"15.08870763","OBJECT_ID":"2022-107AX","COUNTRY_CODE":"US","REF_FRAME":"TEME","MEAN_MOTION_DDOT":"0.0000000000000","BSTAR":"0.00239460000000","MEAN_ANOMALY":"289.0351","TLE_LINE2":"2 53745  53.2161 118.1940 0001131  71.0764 289.0351 15.08870763 30016","LAUNCH_DATE":"2022-09-05","OBJECT_NAME":"STARLINK-4656","APOAPSIS":"540.434","OBJECT_TYPE":"PAYLOAD","MEAN_ELEMENT_THEORY":"SGP4","CENTER_NAME":"EARTH","RCS_SIZE":"LARGE","EPHEMERIS_TYPE":"0","PERIAPSIS":"538.869","SITE":"AFETR","TLE_LINE1":"1 53745U 22107AX  23074.52409626  .00038060  00000-0  23946-2 0  9999"},{"TLE_LINE1":"1 53746U 22107AY  23074.84792556  .00001427  00000-0  10770-3 0  9991","PERIAPSIS":"538.932","SITE":"AFETR","EPHEMERIS_TYPE":"0","RCS_SIZE":"LARGE","CENTER_NAME":"EARTH","MEAN_ELEMENT_THEORY":"SGP4","OBJECT_TYPE":"PAYLOAD","APOAPSIS":"540.484","LAUNCH_DATE":"2022-09-05","OBJECT_NAME":"STARLINK-4589","TLE_LINE2":"2 53746  53.2182 116.6580 0001122 105.4775 254.6341 15.08852135 30062","MEAN_ANOMALY":"254.6341","BSTAR":"0.00010770000000","MEAN_MOTION_DDOT":"0.0000000000000","REF_FRAME":"TEME","COUNTRY_CODE":"US","MEAN_MOTION":"15.08852135","OBJECT_ID":"2022-107AY","EPOCH":"2023-03-15T20:21:00.768384","NORAD_CAT_ID":"53746","FILE":"3861599","INCLINATION":"53.2182","GP_ID":"228210215","DECAY_DATE":null,"RA_OF_ASC_NODE":"116.6580","PERIOD":"95.437","ECCENTRICITY":"0.00011220","TIME_SYSTEM":"UTC","REV_AT_EPOCH":"3006","CLASSIFICATION_TYPE":"U","ELEMENT_SET_NO":"999","MEAN_MOTION_DOT":"0.00001427","ARG_OF_PERICENTER":"105.4775","SEMIMAJOR_AXIS":"6917.843"},{"TLE_LINE2":"2 53748  53.2172 117.9185 0001560  82.1619 277.9551 15.08894021 30029","APOAPSIS":"540.659","OBJECT_NAME":"STARLINK-4669","LAUNCH_DATE":"2022-09-05","MEAN_MOTION_DDOT":"0.0000000000000","MEAN_ANOMALY":"277.9551","BSTAR":"0.00152220000000","MEAN_MOTION":"15.08894021","OBJECT_ID":"2022-107BA","REF_FRAME":"TEME","COUNTRY_CODE":"US","EPOCH":"2023-03-15T14:15:22.711104","TLE_LINE1":"1 53748U 22107BA  23074.59401286  .00024057  00000-0  15222-2 0  9992","PERIAPSIS":"538.501","SITE":"AFETR","EPHEMERIS_TYPE":"0","OBJECT_TYPE":"PAYLOAD","MEAN_ELEMENT_THEORY":"SGP4","RCS_SIZE":"LARGE","CENTER_NAME":"EARTH","ECCENTRICITY":"0.00015600","TIME_SYSTEM":"UTC","CLASSIFICATION_TYPE":"U","REV_AT_EPOCH":"3002","MEAN_MOTION_DOT":"0.00024057","ELEMENT_SET_NO":"999","ARG_OF_PERICENTER":"82.1619","SEMIMAJOR_AXIS":"6917.715","FILE":"3861599","NORAD_CAT_ID":"53748","INCLINATION":"53.2172","GP_ID":"228210467","DECAY_DATE":null,"PERIOD":"95.434","RA_OF_ASC_NODE":"117.9185"},{"DECAY_DATE":null,"PERIOD":"95.436","RA_OF_ASC_NODE":"117.9004","NORAD_CAT_ID":"53749","FILE":"3861599","INCLINATION":"53.2169","GP_ID":"228211217","MEAN_MOTION_DOT":"0.00002747","ELEMENT_SET_NO":"999","SEMIMAJOR_AXIS":"6917.811","ARG_OF_PERICENTER":"115.3991","ECCENTRICITY":"0.00020970","TIME_SYSTEM":"UTC","CLASSIFICATION_TYPE":"U","REV_AT_EPOCH":"3002","SITE":"AFETR","PERIAPSIS":"538.226","EPHEMERIS_TYPE":"0","MEAN_ELEMENT_THEORY":"SGP4","OBJECT_TYPE":"PAYLOAD","RCS_SIZE":"LARGE","CENTER_NAME":"EARTH","TLE_LINE1":"1 53749U 22107BB  23074.59768618  .00002747  00000-0  19054-3 0  9998","OBJECT_ID":"2022-107BB","MEAN_MOTION":"15.08862630","COUNTRY_CODE":"US","REF_FRAME":"TEME","EPOCH":"2023-03-15T14:20:40.085952","TLE_LINE2":"2 53749  53.2169 117.9004 0002097 115.3991 244.7218 15.08862630 30027","APOAPSIS":"541.127","OBJECT_NAME":"STARLINK-4680","LAUNCH_DATE":"2022-09-05","MEAN_MOTION_DDOT":"0.0000000000000","MEAN_ANOMALY":"244.7218","BSTAR":"0.00019054000000"},{"SITE":"AFETR","PERIAPSIS":"538.680","EPHEMERIS_TYPE":"0","MEAN_ELEMENT_THEORY":"SGP4","OBJECT_TYPE":"PAYLOAD","CENTER_NAME":"EARTH","RCS_SIZE":"LARGE","TLE_LINE1":"1 53750U 22107BC  23074.40266770  .00006924  00000-0  45241-3 0  9990","MEAN_MOTION":"15.08865463","OBJECT_ID":"2022-107BC","COUNTRY_CODE":"US","REF_FRAME":"TEME","EPOCH":"2023-03-15T09:39:50.489280","TLE_LINE2":"2 53750  53.2170 118.8573 0001427  88.4041 271.7115 15.08865463 30005","APOAPSIS":"540.655","LAUNCH_DATE":"2022-09-05","OBJECT_NAME":"STARLINK-4612","MEAN_MOTION_DDOT":"0.0000000000000","MEAN_ANOMALY":"271.7115","BSTAR":"0.00045241000000","DECAY_DATE":null,"PERIOD":"95.436","RA_OF_ASC_NODE":"118.8573","NORAD_CAT_ID":"53750","FILE":"3861350","INCLINATION":"53.2170","GP_ID":"228151320","MEAN_MOTION_DOT":"0.00006924","ELEMENT_SET_NO":"999","SEMIMAJOR_AXIS":"6917.803","ARG_OF_PERICENTER":"88.4041","ECCENTRICITY":"0.00014270","TIME_SYSTEM":"UTC","CLASSIFICATION_TYPE":"U","REV_AT_EPOCH":"3000"},{"DECAY_DATE":null,"RA_OF_ASC_NODE":"136.3597","PERIOD":"95.436","FILE":"3861599","NORAD_CAT_ID":"53773","INCLINATION":"53.2156","GP_ID":"228210469","ELEMENT_SET_NO":"999","MEAN_MOTION_DOT":"-0.00000681","ARG_OF_PERICENTER":"85.6345","SEMIMAJOR_AXIS":"6917.826","ECCENTRICITY":"0.00015690","TIME_SYSTEM":"UTC","REV_AT_EPOCH":"2932","CLASSIFICATION_TYPE":"U","SITE":"AFETR","PERIAPSIS":"538.605","EPHEMERIS_TYPE":"0","RCS_SIZE":"LARGE","CENTER_NAME":"EARTH","MEAN_ELEMENT_THEORY":"SGP4","OBJECT_TYPE":"PAYLOAD","TLE_LINE1":"1 53773U 22111A   23074.88654890 -.00000681  00000-0 -24705-4 0  9995","REF_FRAME":"TEME","COUNTRY_CODE":"US","MEAN_MOTION":"15.08857882","OBJECT_ID":"2022-111A","EPOCH":"2023-03-15T21:16:37.824960","APOAPSIS":"540.776","LAUNCH_DATE":"2022-09-11","OBJECT_NAME":"STARLINK-4718","TLE_LINE2":"2 53773  53.2156 136.3597 0001569  85.6345 274.4826 15.08857882 29326","MEAN_ANOMALY":"274.4826","BSTAR":"-0.00002470500000","MEAN_MOTION_DDOT":"0.0000000000000"},{"FILE":"3861599","NORAD_CAT_ID":"53774","INCLINATION":"53.2170","GP_ID":"228211219","DECAY_DATE":null,"PERIOD":"95.437","RA_OF_ASC_NODE":"136.3356","ECCENTRICITY":"0.00013510","TIME_SYSTEM":"UTC","CLASSIFICATION_TYPE":"U","REV_AT_EPOCH":"2918","MEAN_MOTION_DOT":"0.00002862","ELEMENT_SET_NO":"999","SEMIMAJOR_AXIS":"6917.837","ARG_OF_PERICENTER":"73.3441","TLE_LINE1":"1 53774U 22111B   23074.88286397  .00002862  00000-0  19774-3 0  9999","SITE":"AFETR","PERIAPSIS":"538.767","EPHEMERIS_TYPE":"0","MEAN_ELEMENT_THEORY":"SGP4","OBJECT_TYPE":"PAYLOAD","CENTER_NAME":"EARTH","RCS_SIZE":"LARGE","TLE_LINE2":"2 53774  53.2170 136.3356 0001351  73.3441 286.7700 15.08854221 29181","APOAPSIS":"540.637","OBJECT_NAME":"STARLINK-4719","LAUNCH_DATE":"2022-09-11","MEAN_MOTION_DDOT":"0.0000000000000","MEAN_ANOMALY":"286.7700","BSTAR":"0.00019774000000","MEAN_MOTION":"15.08854221","OBJECT_ID":"2022-111B","REF_FRAME":"TEME","COUNTRY_CODE":"US","EPOCH":"2023-03-15T21:11:19.447008"},{"TLE_LINE1":"1 53775U 22111C   23074.84704036 -.00001187  00000-0 -56498-4 0  9997","PERIAPSIS":"538.792","SITE":"AFETR","EPHEMERIS_TYPE":"0","RCS_SIZE":"LARGE","CENTER_NAME":"EARTH","OBJECT_TYPE":"PAYLOAD","MEAN_ELEMENT_THEORY":"SGP4","APOAPSIS":"540.804","OBJECT_NAME":"STARLINK-4722","LAUNCH_DATE":"2022-09-11","TLE_LINE2":"2 53775  53.2169 126.8493 0001454  91.5946 268.5213 15.08822859 29169","MEAN_ANOMALY":"268.5213","BSTAR":"-0.00005649800000","MEAN_MOTION_DDOT":"0.0000000000000","REF_FRAME":"TEME","COUNTRY_CODE":"US","MEAN_MOTION":"15.08822859","OBJECT_ID":"2022-111C","EPOCH":"2023-03-15T20:19:44.287104","FILE":"3861599","NORAD_CAT_ID":"53775","INCLINATION":"53.2169","GP_ID":"228209967","DECAY_DATE":null,"RA_OF_ASC_NODE":"126.8493","PERIOD":"95.439","ECCENTRICITY":"0.00014540","TIME_SYSTEM":"UTC","REV_AT_EPOCH":"2916","CLASSIFICATION_TYPE":"U","ELEMENT_SET_NO":"999","MEAN_MOTION_DOT":"-0.00001187","ARG_OF_PERICENTER":"91.5946","SEMIMAJOR_AXIS":"6917.933"},{"ARG_OF_PERICENTER":"85.4286","SEMIMAJOR_AXIS":"6917.868","MEAN_MOTION_DOT":"0.00000983","ELEMENT_SET_NO":"999","CLASSIFICATION_TYPE":"U","REV_AT_EPOCH":"2931","TIME_SYSTEM":"UTC","ECCENTRICITY":"0.00012270","PERIOD":"95.437","RA_OF_ASC_NODE":"133.5612","DECAY_DATE":null,"GP_ID":"228151572","INCLINATION":"53.2171","FILE":"3861350","NORAD_CAT_ID":"53776","EPOCH":"2023-03-15T10:33:28.649952","MEAN_MOTION":"15.08844013","OBJECT_ID":"2022-111D","REF_FRAME":"TEME","COUNTRY_CODE":"US","MEAN_MOTION_DDOT":"0.0000000000000","BSTAR":"0.00007981900000","MEAN_ANOMALY":"274.6847","TLE_LINE2":"2 53776  53.2171 133.5612 0001227  85.4286 274.6847 15.08844013 29312","LAUNCH_DATE":"2022-09-11","OBJECT_NAME":"STARLINK-4708","APOAPSIS":"540.582","OBJECT_TYPE":"PAYLOAD","MEAN_ELEMENT_THEORY":"SGP4","RCS_SIZE":"LARGE","CENTER_NAME":"EARTH","EPHEMERIS_TYPE":"0","SITE":"AFETR","PERIAPSIS":"538.884","TLE_LINE1":"1 53776U 22111D   23074.43991493  .00000983  00000-0  79819-4 0  9991"},{"TLE_LINE1":"1 53777U 22111E   23074.50845415  .00045908  00000-0  28792-2 0  9990","EPHEMERIS_TYPE":"0","SITE":"AFETR","PERIAPSIS":"538.727","OBJECT_TYPE":"PAYLOAD","MEAN_ELEMENT_THEORY":"SGP4","CENTER_NAME":"EARTH","RCS_SIZE":"LARGE","TLE_LINE2":"2 53777  53.2165 128.2916 0001208  87.4340 272.6790 15.08899641 28306","OBJECT_NAME":"STARLINK-4664","LAUNCH_DATE":"2022-09-11","APOAPSIS":"540.399","MEAN_MOTION_DDOT":"0.0000000000000","BSTAR":"0.00287920000000","MEAN_ANOMALY":"272.6790","MEAN_MOTION":"15.08899641","OBJECT_ID":"2022-111E","REF_FRAME":"TEME","COUNTRY_CODE":"US","EPOCH":"2023-03-15T12:12:10.438560","INCLINATION":"53.2165","FILE":"3861565","NORAD_CAT_ID":"53777","GP_ID":"228184752","DECAY_DATE":null,"PERIOD":"95.434","RA_OF_ASC_NODE":"128.2916","TIME_SYSTEM":"UTC","ECCENTRICITY":"0.00012080","CLASSIFICATION_TYPE":"U","REV_AT_EPOCH":"2830","MEAN_MOTION_DOT":"0.00045908","ELEMENT_SET_NO":"999","ARG_OF_PERICENTER":"87.4340","SEMIMAJOR_AXIS":"6917.698"}];
